TIANLIAN 2-02           
1 50005U 21124A   22237.59953977 -.00000018  00000+0  00000+0 0  9998
2 50005   2.3723 281.7187 0002959 198.4541 240.5942  1.00275522  2664
TURKSAT 5B              
1 50212U 21126A   22237.46550588  .00000141  00000+0  00000+0 0  9993
2 50212   0.0748 326.9069 0001668 354.0344 222.3210  1.00271195  2347
SHIYAN 12 01 (SY-12 01) 
1 50321U 21129A   22237.67881118  .00000127  00000+0  00000+0 0  9990
2 50321   0.1293 151.6421 0000285 122.2118 323.3827  1.00397481  2553
SHIYAN 12 02 (SY-12 02) 
1 50322U 21129B   22237.69183458 -.00000273  00000+0  00000+0 0  9998
2 50322   0.1283 151.9883 0003261 115.7588  93.2807  1.00423573  2567
TJS-9                   
1 50574U 21135A   22237.52535897 -.00000304  00000+0  00000+0 0  9999
2 50574   0.0635 279.3719 0002598 139.2120 241.5106  1.00269057  2480
USA 324                 
1 51280U 22006A   22230.62500000 -.00000077  00000+0  00000+0 0  9991
2 51280   0.2069  34.9171 0000337 186.0882 321.2684  1.00323084  2083
USA 325                 
1 51281U 22006B   22227.67486501 -.00000093  00000+0  00000+0 0  9990
2 51281   0.0934  98.4390 0000897 303.1707 158.5183  1.00155216  2052
GOES 18                 
1 51850U 22021A   22237.50175267  .00000092  00000+0  00000+0 0  9994
2 51850   0.0309  74.1899 0002796 138.8647 164.3182  1.00271754  1825
CHINASAT 6D             
1 52255U 22038A   22237.12063334 -.00000359  00000+0  00000+0 0  9998
2 52255   0.0032 194.6947 0002295 347.4418 319.6715  1.00267539  1483
